{
  "type": "FeatureCollection",
  "features": [
    {
      "type": "Feature",
      "properties": {
        "norad_id": 40894,
        "name": "GAOFEN-9 01",
        "group": "resource",
        "lat": -55.834095235409734,
        "lon": 28.000439506221504,
        "alt_km": 639.2314131721841,
        "timestamp": "2025-12-03T04:52:29.298684+00:00",
        "meta_object_name": "GAOFEN-9 01",
        "meta_object_id": "2015-047A",
        "meta_epoch": "2025-12-02T21:01:47.102304",
        "meta_mean_motion": 14.82381154,
        "meta_eccentricity": 0.0028955,
        "meta_inclination": 97.6556,
        "meta_ra_of_asc_node": 16.2574,
        "meta_arg_of_pericenter": 65.3586,
        "meta_mean_anomaly": 295.0639,
        "meta_ephemeris_type": 0,
        "meta_classification_type": "U",
        "meta_norad_cat_id": 40894,
        "meta_element_set_no": 999,
        "meta_rev_at_epoch": 55110,
        "meta_bstar": 0.00020678,
        "meta_mean_motion_dot": 1.616e-05,
        "meta_mean_motion_ddot": 0,
        "tle_line1": "1 40894U 15047A   25336.87623961  .00001616  00000+0  20678-3 0  9992",
        "tle_line2": "2 40894  97.6556  16.2574 0028955  65.3586 295.0639 14.82381154551105"
      },
      "geometry": {
        "type": "Point",
        "coordinates": [
          28.000439506221504,
          -55.834095235409734
        ]
      }
    },
    {
      "type": "Feature",
      "properties": {
        "norad_id": 41026,
        "name": "YAOGAN-28",
        "group": "resource",
        "lat": 76.37128289021568,
        "lon": -32.9148730445677,
        "alt_km": 481.76491478430944,
        "timestamp": "2025-12-03T04:52:29.298694+00:00",
        "meta_object_name": "YAOGAN-28",
        "meta_object_id": "2015-064A",
        "meta_epoch": "2025-12-02T20:33:07.339680",
        "meta_mean_motion": 15.2408145,
        "meta_eccentricity": 0.00119,
        "meta_inclination": 97.2796,
        "meta_ra_of_asc_node": 114.9298,
        "meta_arg_of_pericenter": 158.9045,
        "meta_mean_anomaly": 201.2686,
        "meta_ephemeris_type": 0,
        "meta_classification_type": "U",
        "meta_norad_cat_id": 41026,
        "meta_element_set_no": 999,
        "meta_rev_at_epoch": 56074,
        "meta_bstar": 0.00050601,
        "meta_mean_motion_dot": 0.00012249,
        "meta_mean_motion_ddot": 0,
        "tle_line1": "1 41026U 15064A   25336.85633495  .00012249  00000+0  50601-3 0  9993",
        "tle_line2": "2 41026  97.2796 114.9298 0011900 158.9045 201.2686 15.24081450560749"
      },
      "geometry": {
        "type": "Point",
        "coordinates": [
          -32.9148730445677,
          76.37128289021568
        ]
      }
    },
    {
      "type": "Feature",
      "properties": {
        "norad_id": 41038,
        "name": "YAOGAN-29",
        "group": "resource",
        "lat": 4.6862487963938015,
        "lon": -178.9937143892019,
        "alt_km": 623.2339387426118,
        "timestamp": "2025-12-03T04:52:29.298704+00:00",
        "meta_object_name": "YAOGAN-29",
        "meta_object_id": "2015-069A",
        "meta_epoch": "2025-12-02T19:59:24.315648",
        "meta_mean_motion": 14.82864522,
        "meta_eccentricity": 8.05e-05,
        "meta_inclination": 98.0229,
        "meta_ra_of_asc_node": 359.9724,
        "meta_arg_of_pericenter": 9.2104,
        "meta_mean_anomaly": 350.9124,
        "meta_ephemeris_type": 0,
        "meta_classification_type": "U",
        "meta_norad_cat_id": 41038,
        "meta_element_set_no": 999,
        "meta_rev_at_epoch": 54152,
        "meta_bstar": 9.0635e-05,
        "meta_mean_motion_dot": 6.8e-06,
        "meta_mean_motion_ddot": 0,
        "tle_line1": "1 41038U 15069A   25336.83292032  .00000680  00000+0  90635-4 0  9995",
        "tle_line2": "2 41038  98.0229 359.9724 0000805   9.2104 350.9124 14.82864522541529"
      },
      "geometry": {
        "type": "Point",
        "coordinates": [
          -178.9937143892019,
          4.6862487963938015
        ]
      }
    },
    {
      "type": "Feature",
      "properties": {
        "norad_id": 41167,
        "name": "KENT RIDGE 1",
        "group": "resource",
        "lat": 0.9826371348380172,
        "lon": -74.41614350120416,
        "alt_km": 492.4644039629229,
        "timestamp": "2025-12-03T04:52:29.298715+00:00",
        "meta_object_name": "KENT RIDGE 1",
        "meta_object_id": "2015-077B",
        "meta_epoch": "2025-12-02T05:15:28.609632",
        "meta_mean_motion": 15.21503241,
        "meta_eccentricity": 0.0008704,
        "meta_inclination": 14.9806,
        "meta_ra_of_asc_node": 289.1971,
        "meta_arg_of_pericenter": 341.7782,
        "meta_mean_anomaly": 18.2228,
        "meta_ephemeris_type": 0,
        "meta_classification_type": "U",
        "meta_norad_cat_id": 41167,
        "meta_element_set_no": 999,
        "meta_rev_at_epoch": 55103,
        "meta_bstar": 0.00021780995,
        "meta_mean_motion_dot": 5.81e-05,
        "meta_mean_motion_ddot": 0,
        "tle_line1": "1 41167U 15077B   25336.21908113  .00005810  00000+0  21781-3 0  9998",
        "tle_line2": "2 41167  14.9806 289.1971 0008704 341.7782  18.2228 15.21503241551038"
      },
      "geometry": {
        "type": "Point",
        "coordinates": [
          -74.41614350120416,
          0.9826371348380172
        ]
      }
    },
    {
      "type": "Feature",
      "properties": {
        "norad_id": 41194,
        "name": "GAOFEN-4",
        "group": "resource",
        "lat": -0.0017876196852970757,
        "lon": -108.8871068394853,
        "alt_km": 35779.16494123477,
        "timestamp": "2025-12-03T04:52:29.298728+00:00",
        "meta_object_name": "GAOFEN-4",
        "meta_object_id": "2015-083A",
        "meta_epoch": "2025-12-02T19:57:21.555072",
        "meta_mean_motion": 1.00273925,
        "meta_eccentricity": 0.0003753,
        "meta_inclination": 0.143,
        "meta_ra_of_asc_node": 80.6627,
        "meta_arg_of_pericenter": 103.97,
        "meta_mean_anomaly": 292.3157,
        "meta_ephemeris_type": 0,
        "meta_classification_type": "U",
        "meta_norad_cat_id": 41194,
        "meta_element_set_no": 999,
        "meta_rev_at_epoch": 3656,
        "meta_bstar": 0,
        "meta_mean_motion_dot": -3.15e-06,
        "meta_mean_motion_ddot": 0,
        "tle_line1": "1 41194U 15083A   25336.83149948 -.00000315  00000+0  00000+0 0  9999",
        "tle_line2": "2 41194   0.1430  80.6627 0003753 103.9700 292.3157  1.00273925 36564"
      },
      "geometry": {
        "type": "Point",
        "coordinates": [
          -108.8871068394853,
          -0.0017876196852970757
        ]
      }
    },
    {
      "type": "Feature",
      "properties": {
        "norad_id": 41240,
        "name": "JASON-3",
        "group": "resource",
        "lat": 26.507766388279656,
        "lon": -169.3122499654136,
        "alt_km": 1311.651018466474,
        "timestamp": "2025-12-03T04:52:29.298739+00:00",
        "meta_object_name": "JASON-3",
        "meta_object_id": "2016-002A",
        "meta_epoch": "2025-12-02T19:24:10.952640",
        "meta_mean_motion": 12.8762594,
        "meta_eccentricity": 0.0007147,
        "meta_inclination": 66.0392,
        "meta_ra_of_asc_node": 178.7041,
        "meta_arg_of_pericenter": 270.2564,
        "meta_mean_anomaly": 89.7636,
        "meta_ephemeris_type": 0,
        "meta_classification_type": "U",
        "meta_norad_cat_id": 41240,
        "meta_element_set_no": 999,
        "meta_rev_at_epoch": 46196,
        "meta_bstar": 0.00019602,
        "meta_mean_motion_dot": -1.3e-07,
        "meta_mean_motion_ddot": 0,
        "tle_line1": "1 41240U 16002A   25336.80846010 -.00000013  00000+0  19602-3 0  9991",
        "tle_line2": "2 41240  66.0392 178.7041 0007147 270.2564  89.7636 12.87625940461961"
      },
      "geometry": {
        "type": "Point",
        "coordinates": [
          -169.3122499654136,
          26.507766388279656
        ]
      }
    },
    {
      "type": "Feature",
      "properties": {
        "norad_id": 41335,
        "name": "SENTINEL-3A",
        "group": "resource",
        "lat": -1.7451384549713003,
        "lon": 42.6179197241965,
        "alt_km": 805.8212238953884,
        "timestamp": "2025-12-03T04:52:29.298749+00:00",
        "meta_object_name": "SENTINEL-3A",
        "meta_object_id": "2016-011A",
        "meta_epoch": "2025-12-02T20:28:02.968896",
        "meta_mean_motion": 14.2674031,
        "meta_eccentricity": 9.99e-05,
        "meta_inclination": 98.622,
        "meta_ra_of_asc_node": 42.008,
        "meta_arg_of_pericenter": 91.2127,
        "meta_mean_anomaly": 268.9167,
        "meta_ephemeris_type": 0,
        "meta_classification_type": "U",
        "meta_norad_cat_id": 41335,
        "meta_element_set_no": 999,
        "meta_rev_at_epoch": 51006,
        "meta_bstar": 0.00010212,
        "meta_mean_motion_dot": 2.04e-06,
        "meta_mean_motion_ddot": 0,
        "tle_line1": "1 41335U 16011A   25336.85281214  .00000204  00000+0  10212-3 0  9999",
        "tle_line2": "2 41335  98.6220  42.0080 0000999  91.2127 268.9167 14.26740310510067"
      },
      "geometry": {
        "type": "Point",
        "coordinates": [
          42.6179197241965,
          -1.7451384549713003
        ]
      }
    }
  ]
}